ONEWEB-0209             
1 48215U 21031F   25254.19463497 -.00000078  00000+0 -24531-3 0  9992
2 48215  87.9088 345.2680 0001955 105.5488 254.5858 13.14503827211725
ONEWEB-0198             
1 48216U 21031G   25254.17889150  .00000170  00000+0  42318-3 0  9993
2 48216  87.9088 345.2708 0001721 116.0143 244.1164 13.14503897211837
ONEWEB-0189             
1 48217U 21031H   25254.26756377 -.00000040  00000+0 -14354-3 0  9995
2 48217  87.9083 345.2266 0001696 113.2990 246.8318 13.14503893211580
ONEWEB-0196             
1 48218U 21031J   25254.01701843  .00000310  00000+0  80145-3 0  9996
2 48218  87.9091 345.2912 0001817 105.1681 254.9650 13.14503818211553
ONEWEB-0183             
1 48219U 21031K   25253.99164133 -.00000001  00000+0 -36706-4 0  9992
2 48219  87.9082 345.3062 0002063  99.3608 260.7755 13.14503135211641
ONEWEB-0185             
1 48220U 21031L   25254.24615213  .00000272  00000+0  69854-3 0  9990
2 48220  87.9093 345.2224 0002221 106.1937 253.9438 13.14504174211604
ONEWEB-0187             
1 48221U 21031M   25254.07398803  .00000075  00000+0  16703-3 0  9991
2 48221  87.9090 345.3025 0002018 108.8474 251.2875 13.14503316211592
ONEWEB-0192             
1 48222U 21031N   25253.96785241 -.00000180  00000+0 -52127-3 0  9994
2 48222  87.9085 345.3168 0001753 102.0988 258.0338 13.14503941211498
ONEWEB-0219             
1 48223U 21031P   25254.25171626  .00000252  00000+0  64589-3 0  9997
2 48223  87.9087 345.2334 0002032 106.3654 253.7699 13.14502650211738
ONEWEB-0202             
1 48224U 21031Q   25254.23268213  .00000131  00000+0  31849-3 0  9994
2 48224  87.9087 345.2514 0001491 124.3939 235.7332 13.14503236211716
ONEWEB-0204             
1 48225U 21031R   25254.26677264 -.00000026  00000+0 -10415-3 0  9999
2 48225  87.9081 345.2343 0002100  96.2705 263.8664 13.14503639211613
ONEWEB-0205             
1 48226U 21031S   25254.24219615  .00000293  00000+0  75563-3 0  9999
2 48226  87.9084 345.2302 0001943 105.6813 254.4531 13.14503303211629
ONEWEB-0206             
1 48227U 21031T   25254.21523770 -.00000131  00000+0 -38895-3 0  9997
2 48227  87.9094 345.2180 0001937 101.4511 258.6836 13.14503699211573
ONEWEB-0182             
1 48228U 21031U   25253.98212886 -.00000182  00000+0 -52587-3 0  9994
2 48228  87.9086 345.3076 0002075  98.3479 261.7886 13.14502727211752
ONEWEB-0186             
1 48229U 21031V   25254.22158303 -.00000045  00000+0 -15552-3 0  9995
2 48229  87.9095 345.2228 0001883 103.5303 256.6036 13.14504020211738
ONEWEB-0181             
1 48230U 21031W   25254.19937682 -.00000111  00000+0 -33411-3 0  9996
2 48230  87.9080 345.2983 0001781 106.4551 253.6774 13.14502413211589
