[{"OBJECT_NAME":"ONEWEB-0209","OBJECT_ID":"2021-031F","EPOCH":"2025-09-11T04:40:16.461408","MEAN_MOTION":13.14503827,"ECCENTRICITY":0.00019559,"INCLINATION":87.9088,"RA_OF_ASC_NODE":345.268,"ARG_OF_PERICENTER":105.5488,"MEAN_ANOMALY":254.5858,"EPHEMERIS_TYPE":0,"CLASSIFICATION_TYPE":"U","NORAD_CAT_ID":48215,"ELEMENT_SET_NO":999,"REV_AT_EPOCH":21172,"BSTAR":-0.00024531197,"MEAN_MOTION_DOT":-7.8e-7,"MEAN_MOTION_DDOT":0},{"OBJECT_NAME":"ONEWEB-0198","OBJECT_ID":"2021-031G","EPOCH":"2025-09-11T04:17:36.225600","MEAN_MOTION":13.14503897,"ECCENTRICITY":0.00017216,"INCLINATION":87.9088,"RA_OF_ASC_NODE":345.2708,"ARG_OF_PERICENTER":116.0143,"MEAN_ANOMALY":244.1164,"EPHEMERIS_TYPE":0,"CLASSIFICATION_TYPE":"U","NORAD_CAT_ID":48216,"ELEMENT_SET_NO":999,"REV_AT_EPOCH":21183,"BSTAR":0.00042318005,"MEAN_MOTION_DOT":1.7e-6,"MEAN_MOTION_DDOT":0},{"OBJECT_NAME":"ONEWEB-0189","OBJECT_ID":"2021-031H","EPOCH":"2025-09-11T06:25:17.509728","MEAN_MOTION":13.14503893,"ECCENTRICITY":0.00016961,"INCLINATION":87.9083,"RA_OF_ASC_NODE":345.2266,"ARG_OF_PERICENTER":113.299,"MEAN_ANOMALY":246.8318,"EPHEMERIS_TYPE":0,"CLASSIFICATION_TYPE":"U","NORAD_CAT_ID":48217,"ELEMENT_SET_NO":999,"REV_AT_EPOCH":21158,"BSTAR":-0.00014353961,"MEAN_MOTION_DOT":-4.0e-7,"MEAN_MOTION_DDOT":0},{"OBJECT_NAME":"ONEWEB-0196","OBJECT_ID":"2021-031J","EPOCH":"2025-09-11T00:24:30.392352","MEAN_MOTION":13.14503818,"ECCENTRICITY":0.00018176,"INCLINATION":87.9091,"RA_OF_ASC_NODE":345.2912,"ARG_OF_PERICENTER":105.1681,"MEAN_ANOMALY":254.965,"EPHEMERIS_TYPE":0,"CLASSIFICATION_TYPE":"U","NORAD_CAT_ID":48218,"ELEMENT_SET_NO":999,"REV_AT_EPOCH":21155,"BSTAR":0.0008014509,"MEAN_MOTION_DOT":3.1e-6,"MEAN_MOTION_DDOT":0},{"OBJECT_NAME":"ONEWEB-0183","OBJECT_ID":"2021-031K","EPOCH":"2025-09-10T23:47:57.810912","MEAN_MOTION":13.14503135,"ECCENTRICITY":0.00020633,"INCLINATION":87.9082,"RA_OF_ASC_NODE":345.3062,"ARG_OF_PERICENTER":99.3608,"MEAN_ANOMALY":260.7755,"EPHEMERIS_TYPE":0,"CLASSIFICATION_TYPE":"U","NORAD_CAT_ID":48219,"ELEMENT_SET_NO":999,"REV_AT_EPOCH":21164,"BSTAR":-3.6706117e-5,"MEAN_MOTION_DOT":-1.0e-8,"MEAN_MOTION_DDOT":0},{"OBJECT_NAME":"ONEWEB-0185","OBJECT_ID":"2021-031L","EPOCH":"2025-09-11T05:54:27.544032","MEAN_MOTION":13.14504174,"ECCENTRICITY":0.0002221,"INCLINATION":87.9093,"RA_OF_ASC_NODE":345.2224,"ARG_OF_PERICENTER":106.1937,"MEAN_ANOMALY":253.9438,"EPHEMERIS_TYPE":0,"CLASSIFICATION_TYPE":"U","NORAD_CAT_ID":48220,"ELEMENT_SET_NO":999,"REV_AT_EPOCH":21160,"BSTAR":0.00069854326,"MEAN_MOTION_DOT":2.72e-6,"MEAN_MOTION_DDOT":0},{"OBJECT_NAME":"ONEWEB-0187","OBJECT_ID":"2021-031M","EPOCH":"2025-09-11T01:46:32.565792","MEAN_MOTION":13.14503316,"ECCENTRICITY":0.00020187,"INCLINATION":87.909,"RA_OF_ASC_NODE":345.3025,"ARG_OF_PERICENTER":108.8474,"MEAN_ANOMALY":251.2875,"EPHEMERIS_TYPE":0,"CLASSIFICATION_TYPE":"U","NORAD_CAT_ID":48221,"ELEMENT_SET_NO":999,"REV_AT_EPOCH":21159,"BSTAR":0.00016703043,"MEAN_MOTION_DOT":7.5e-7,"MEAN_MOTION_DDOT":0},{"OBJECT_NAME":"ONEWEB-0192","OBJECT_ID":"2021-031N","EPOCH":"2025-09-10T23:13:42.448224","MEAN_MOTION":13.14503941,"ECCENTRICITY":0.00017532,"INCLINATION":87.9085,"RA_OF_ASC_NODE":345.3168,"ARG_OF_PERICENTER":102.0988,"MEAN_ANOMALY":258.0338,"EPHEMERIS_TYPE":0,"CLASSIFICATION_TYPE":"U","NORAD_CAT_ID":48222,"ELEMENT_SET_NO":999,"REV_AT_EPOCH":21149,"BSTAR":-0.00052127424,"MEAN_MOTION_DOT":-1.8e-6,"MEAN_MOTION_DDOT":0},{"OBJECT_NAME":"ONEWEB-0219","OBJECT_ID":"2021-031P","EPOCH":"2025-09-11T06:02:28.284864","MEAN_MOTION":13.1450265,"ECCENTRICITY":0.00020322,"INCLINATION":87.9087,"RA_OF_ASC_NODE":345.2334,"ARG_OF_PERICENTER":106.3654,"MEAN_ANOMALY":253.7699,"EPHEMERIS_TYPE":0,"CLASSIFICATION_TYPE":"U","NORAD_CAT_ID":48223,"ELEMENT_SET_NO":999,"REV_AT_EPOCH":21173,"BSTAR":0.00064589457,"MEAN_MOTION_DOT":2.52e-6,"MEAN_MOTION_DDOT":0},{"OBJECT_NAME":"ONEWEB-0202","OBJECT_ID":"2021-031Q","EPOCH":"2025-09-11T05:35:03.736032","MEAN_MOTION":13.14503236,"ECCENTRICITY":0.00014916,"INCLINATION":87.9087,"RA_OF_ASC_NODE":345.2514,"ARG_OF_PERICENTER":124.3939,"MEAN_ANOMALY":235.7332,"EPHEMERIS_TYPE":0,"CLASSIFICATION_TYPE":"U","NORAD_CAT_ID":48224,"ELEMENT_SET_NO":999,"REV_AT_EPOCH":21171,"BSTAR":0.00031848879,"MEAN_MOTION_DOT":1.31e-6,"MEAN_MOTION_DDOT":0},{"OBJECT_NAME":"ONEWEB-0204","OBJECT_ID":"2021-031R","EPOCH":"2025-09-11T06:24:09.156096","MEAN_MOTION":13.14503639,"ECCENTRICITY":0.00021006,"INCLINATION":87.9081,"RA_OF_ASC_NODE":345.2343,"ARG_OF_PERICENTER":96.2705,"MEAN_ANOMALY":263.8664,"EPHEMERIS_TYPE":0,"CLASSIFICATION_TYPE":"U","NORAD_CAT_ID":48225,"ELEMENT_SET_NO":999,"REV_AT_EPOCH":21161,"BSTAR":-0.00010415206,"MEAN_MOTION_DOT":-2.6e-7,"MEAN_MOTION_DDOT":0},{"OBJECT_NAME":"ONEWEB-0205","OBJECT_ID":"2021-031S","EPOCH":"2025-09-11T05:48:45.747360","MEAN_MOTION":13.14503303,"ECCENTRICITY":0.00019434,"INCLINATION":87.9084,"RA_OF_ASC_NODE":345.2302,"ARG_OF_PERICENTER":105.6813,"MEAN_ANOMALY":254.4531,"EPHEMERIS_TYPE":0,"CLASSIFICATION_TYPE":"U","NORAD_CAT_ID":48226,"ELEMENT_SET_NO":999,"REV_AT_EPOCH":21162,"BSTAR":0.00075563383,"MEAN_MOTION_DOT":2.93e-6,"MEAN_MOTION_DDOT":0},{"OBJECT_NAME":"ONEWEB-0206","OBJECT_ID":"2021-031T","EPOCH":"2025-09-11T05:09:56.537280","MEAN_MOTION":13.14503699,"ECCENTRICITY":0.00019374,"INCLINATION":87.9094,"RA_OF_ASC_NODE":345.218,"ARG_OF_PERICENTER":101.4511,"MEAN_ANOMALY":258.6836,"EPHEMERIS_TYPE":0,"CLASSIFICATION_TYPE":"U","NORAD_CAT_ID":48227,"ELEMENT_SET_NO":999,"REV_AT_EPOCH":21157,"BSTAR":-0.00038895355,"MEAN_MOTION_DOT":-1.31e-6,"MEAN_MOTION_DDOT":0},{"OBJECT_NAME":"ONEWEB-0182","OBJECT_ID":"2021-031U","EPOCH":"2025-09-10T23:34:15.933504","MEAN_MOTION":13.14502727,"ECCENTRICITY":0.00020759,"INCLINATION":87.9086,"RA_OF_ASC_NODE":345.3076,"ARG_OF_PERICENTER":98.3479,"MEAN_ANOMALY":261.7886,"EPHEMERIS_TYPE":0,"CLASSIFICATION_TYPE":"U","NORAD_CAT_ID":48228,"ELEMENT_SET_NO":999,"REV_AT_EPOCH":21175,"BSTAR":-0.00052586974,"MEAN_MOTION_DOT":-1.82e-6,"MEAN_MOTION_DDOT":0},{"OBJECT_NAME":"ONEWEB-0186","OBJECT_ID":"2021-031V","EPOCH":"2025-09-11T05:19:04.773792","MEAN_MOTION":13.1450402,"ECCENTRICITY":0.0001883,"INCLINATION":87.9095,"RA_OF_ASC_NODE":345.2228,"ARG_OF_PERICENTER":103.5303,"MEAN_ANOMALY":256.6036,"EPHEMERIS_TYPE":0,"CLASSIFICATION_TYPE":"U","NORAD_CAT_ID":48229,"ELEMENT_SET_NO":999,"REV_AT_EPOCH":21173,"BSTAR":-0.00015552057,"MEAN_MOTION_DOT":-4.5e-7,"MEAN_MOTION_DDOT":0},{"OBJECT_NAME":"ONEWEB-0181","OBJECT_ID":"2021-031W","EPOCH":"2025-09-11T04:47:06.157248","MEAN_MOTION":13.14502413,"ECCENTRICITY":0.00017813,"INCLINATION":87.908,"RA_OF_ASC_NODE":345.2983,"ARG_OF_PERICENTER":106.4551,"MEAN_ANOMALY":253.6774,"EPHEMERIS_TYPE":0,"CLASSIFICATION_TYPE":"U","NORAD_CAT_ID":48230,"ELEMENT_SET_NO":999,"REV_AT_EPOCH":21158,"BSTAR":-0.00033410925,"MEAN_MOTION_DOT":-1.11e-6,"MEAN_MOTION_DDOT":0}]
